[{"OBJECT_NAME":"STARLINK-34126","OBJECT_ID":"2025-107V","EPOCH":"2025-10-14T07:52:05.974752","MEAN_MOTION":15.27585856,"ECCENTRICITY":0.0002929,"INCLINATION":43.0054,"RA_OF_ASC_NODE":308.354,"ARG_OF_PERICENTER":280.9774,"MEAN_ANOMALY":79.0748,"EPHEMERIS_TYPE":0,"CLASSIFICATION_TYPE":"U","NORAD_CAT_ID":64083,"ELEMENT_SET_NO":999,"REV_AT_EPOCH":2264,"BSTAR":0.000805493,"MEAN_MOTION_DOT":0.00021975,"MEAN_MOTION_DDOT":0},{"OBJECT_NAME":"STARLINK-34157","OBJECT_ID":"2025-107W","EPOCH":"2025-10-14T02:19:39.796896","MEAN_MOTION":15.27559556,"ECCENTRICITY":0.00012027,"INCLINATION":43.0018,"RA_OF_ASC_NODE":309.1931,"ARG_OF_PERICENTER":269.5565,"MEAN_ANOMALY":90.5149,"EPHEMERIS_TYPE":0,"CLASSIFICATION_TYPE":"U","NORAD_CAT_ID":64084,"ELEMENT_SET_NO":999,"REV_AT_EPOCH":2368,"BSTAR":0.0012422084,"MEAN_MOTION_DOT":0.00034057,"MEAN_MOTION_DDOT":0},{"OBJECT_NAME":"STARLINK-34140","OBJECT_ID":"2025-107X","EPOCH":"2025-10-14T02:49:16.625856","MEAN_MOTION":15.27631782,"ECCENTRICITY":0.00032964,"INCLINATION":43.002,"RA_OF_ASC_NODE":309.3518,"ARG_OF_PERICENTER":76.6293,"MEAN_ANOMALY":283.4926,"EPHEMERIS_TYPE":0,"CLASSIFICATION_TYPE":"U","NORAD_CAT_ID":64085,"ELEMENT_SET_NO":999,"REV_AT_EPOCH":2368,"BSTAR":0.0013873538,"MEAN_MOTION_DOT":0.00038177,"MEAN_MOTION_DDOT":0},{"OBJECT_NAME":"STARLINK-34132","OBJECT_ID":"2025-107Y","EPOCH":"2025-10-13T19:13:17.600160","MEAN_MOTION":15.27610215,"ECCENTRICITY":1.631e-5,"INCLINATION":43.0023,"RA_OF_ASC_NODE":311.2794,"ARG_OF_PERICENTER":205.3353,"MEAN_ANOMALY":154.7491,"EPHEMERIS_TYPE":0,"CLASSIFICATION_TYPE":"U","NORAD_CAT_ID":64086,"ELEMENT_SET_NO":999,"REV_AT_EPOCH":2362,"BSTAR":0.0015173585,"MEAN_MOTION_DOT":0.00041768,"MEAN_MOTION_DDOT":0},{"OBJECT_NAME":"STARLINK-34178","OBJECT_ID":"2025-110A","EPOCH":"2025-10-14T07:29:02.149152","MEAN_MOTION":15.39609767,"ECCENTRICITY":0.00016607,"INCLINATION":53.1591,"RA_OF_ASC_NODE":347.933,"ARG_OF_PERICENTER":104.2597,"MEAN_ANOMALY":255.8593,"EPHEMERIS_TYPE":0,"CLASSIFICATION_TYPE":"U","NORAD_CAT_ID":64096,"ELEMENT_SET_NO":999,"REV_AT_EPOCH":2345,"BSTAR":0.0012484811,"MEAN_MOTION_DOT":0.00049849,"MEAN_MOTION_DDOT":0},{"OBJECT_NAME":"STARLINK-34174","OBJECT_ID":"2025-110B","EPOCH":"2025-10-14T04:16:00.215328","MEAN_MOTION":15.39668376,"ECCENTRICITY":0.00019463,"INCLINATION":53.1584,"RA_OF_ASC_NODE":349.2336,"ARG_OF_PERICENTER":81.5633,"MEAN_ANOMALY":278.5592,"EPHEMERIS_TYPE":0,"CLASSIFICATION_TYPE":"U","NORAD_CAT_ID":64097,"ELEMENT_SET_NO":999,"REV_AT_EPOCH":2342,"BSTAR":0.0014388548,"MEAN_MOTION_DOT":0.00057683,"MEAN_MOTION_DDOT":0},{"OBJECT_NAME":"STARLINK-34146","OBJECT_ID":"2025-110C","EPOCH":"2025-10-13T21:54:55.664928","MEAN_MOTION":15.39614581,"ECCENTRICITY":6.258e-5,"INCLINATION":53.1602,"RA_OF_ASC_NODE":350.4285,"ARG_OF_PERICENTER":87.265,"MEAN_ANOMALY":272.8426,"EPHEMERIS_TYPE":0,"CLASSIFICATION_TYPE":"U","NORAD_CAT_ID":64098,"ELEMENT_SET_NO":999,"REV_AT_EPOCH":2338,"BSTAR":0.001452749,"MEAN_MOTION_DOT":0.00058143,"MEAN_MOTION_DDOT":0},{"OBJECT_NAME":"STARLINK-34074","OBJECT_ID":"2025-110D","EPOCH":"2025-10-14T04:02:09.678912","MEAN_MOTION":15.39627475,"ECCENTRICITY":0.00021511,"INCLINATION":53.1596,"RA_OF_ASC_NODE":349.175,"ARG_OF_PERICENTER":80.2769,"MEAN_ANOMALY":279.8479,"EPHEMERIS_TYPE":0,"CLASSIFICATION_TYPE":"U","NORAD_CAT_ID":64099,"ELEMENT_SET_NO":999,"REV_AT_EPOCH":2342,"BSTAR":0.0012599914,"MEAN_MOTION_DOT":0.00050346,"MEAN_MOTION_DDOT":0},{"OBJECT_NAME":"STARLINK-34082","OBJECT_ID":"2025-110E","EPOCH":"2025-10-14T04:22:42.110112","MEAN_MOTION":15.39622367,"ECCENTRICITY":7.013e-5,"INCLINATION":53.1608,"RA_OF_ASC_NODE":349.2649,"ARG_OF_PERICENTER":342.2527,"MEAN_ANOMALY":17.8454,"EPHEMERIS_TYPE":0,"CLASSIFICATION_TYPE":"U","NORAD_CAT_ID":64100,"ELEMENT_SET_NO":999,"REV_AT_EPOCH":2342,"BSTAR":0.0017439,"MEAN_MOTION_DOT":0.00070003,"MEAN_MOTION_DDOT":0},{"OBJECT_NAME":"STARLINK-34072","OBJECT_ID":"2025-110F","EPOCH":"2025-10-13T14:14:13.732800","MEAN_MOTION":15.39618815,"ECCENTRICITY":0.00010717,"INCLINATION":53.159,"RA_OF_ASC_NODE":351.9841,"ARG_OF_PERICENTER":90.8786,"MEAN_ANOMALY":269.2342,"EPHEMERIS_TYPE":0,"CLASSIFICATION_TYPE":"U","NORAD_CAT_ID":64101,"ELEMENT_SET_NO":999,"REV_AT_EPOCH":2333,"BSTAR":0.0014398039,"MEAN_MOTION_DOT":0.00057625,"MEAN_MOTION_DDOT":0},{"OBJECT_NAME":"STARLINK-34104","OBJECT_ID":"2025-110G","EPOCH":"2025-10-13T21:55:25.000320","MEAN_MOTION":15.39625977,"ECCENTRICITY":0.00015063,"INCLINATION":53.1604,"RA_OF_ASC_NODE":350.4287,"ARG_OF_PERICENTER":87.2344,"MEAN_ANOMALY":272.8833,"EPHEMERIS_TYPE":0,"CLASSIFICATION_TYPE":"U","NORAD_CAT_ID":64102,"ELEMENT_SET_NO":999,"REV_AT_EPOCH":2338,"BSTAR":0.0014930011,"MEAN_MOTION_DOT":0.00059801,"MEAN_MOTION_DDOT":0},{"OBJECT_NAME":"STARLINK-34179","OBJECT_ID":"2025-110H","EPOCH":"2025-10-14T04:02:38.338656","MEAN_MOTION":15.39622193,"ECCENTRICITY":7.463e-5,"INCLINATION":53.1599,"RA_OF_ASC_NODE":349.1762,"ARG_OF_PERICENTER":108.1831,"MEAN_ANOMALY":251.9256,"EPHEMERIS_TYPE":0,"CLASSIFICATION_TYPE":"U","NORAD_CAT_ID":64103,"ELEMENT_SET_NO":999,"REV_AT_EPOCH":2342,"BSTAR":0.0020702956,"MEAN_MOTION_DOT":0.00083326,"MEAN_MOTION_DDOT":0},{"OBJECT_NAME":"STARLINK-34176","OBJECT_ID":"2025-110J","EPOCH":"2025-10-14T03:55:57.256896","MEAN_MOTION":15.3965447,"ECCENTRICITY":0.00027756,"INCLINATION":53.1596,"RA_OF_ASC_NODE":349.1469,"ARG_OF_PERICENTER":74.8625,"MEAN_ANOMALY":285.2686,"EPHEMERIS_TYPE":0,"CLASSIFICATION_TYPE":"U","NORAD_CAT_ID":64104,"ELEMENT_SET_NO":999,"REV_AT_EPOCH":2342,"BSTAR":0.001795186,"MEAN_MOTION_DOT":0.00072175,"MEAN_MOTION_DDOT":0},{"OBJECT_NAME":"STARLINK-33949","OBJECT_ID":"2025-110K","EPOCH":"2025-10-14T03:55:28.110720","MEAN_MOTION":15.39651309,"ECCENTRICITY":0.00014148,"INCLINATION":53.1596,"RA_OF_ASC_NODE":349.1438,"ARG_OF_PERICENTER":101.2945,"MEAN_ANOMALY":258.8219,"EPHEMERIS_TYPE":0,"CLASSIFICATION_TYPE":"U","NORAD_CAT_ID":64105,"ELEMENT_SET_NO":999,"REV_AT_EPOCH":2342,"BSTAR":0.0015177333,"MEAN_MOTION_DOT":0.00060857,"MEAN_MOTION_DDOT":0},{"OBJECT_NAME":"STARLINK-33970","OBJECT_ID":"2025-110L","EPOCH":"2025-10-13T21:34:51.964320","MEAN_MOTION":15.39615504,"ECCENTRICITY":7.194e-5,"INCLINATION":53.1597,"RA_OF_ASC_NODE":350.339,"ARG_OF_PERICENTER":102.8657,"MEAN_ANOMALY":257.2428,"EPHEMERIS_TYPE":0,"CLASSIFICATION_TYPE":"U","NORAD_CAT_ID":64106,"ELEMENT_SET_NO":999,"REV_AT_EPOCH":2338,"BSTAR":0.0011794845,"MEAN_MOTION_DOT":0.00047063,"MEAN_MOTION_DDOT":0},{"OBJECT_NAME":"STARLINK-33912","OBJECT_ID":"2025-110M","EPOCH":"2025-10-13T21:28:40.072800","MEAN_MOTION":15.39621808,"ECCENTRICITY":0.00012415,"INCLINATION":53.1601,"RA_OF_ASC_NODE":350.3117,"ARG_OF_PERICENTER":93.8444,"MEAN_ANOMALY":266.2702,"EPHEMERIS_TYPE":0,"CLASSIFICATION_TYPE":"U","NORAD_CAT_ID":64107,"ELEMENT_SET_NO":999,"REV_AT_EPOCH":2338,"BSTAR":0.0013044663,"MEAN_MOTION_DOT":0.00052139,"MEAN_MOTION_DDOT":0}]
