STARLINK-34126          
1 64083U 25107V   25287.32784693  .00021975  00000+0  80549-3 0  9994
2 64083  43.0054 308.3540 0002929 280.9774  79.0748 15.27585856 22642
STARLINK-34157          
1 64084U 25107W   25287.09698839  .00034057  00000+0  12422-2 0  9994
2 64084  43.0018 309.1931 0001202 269.5565  90.5149 15.27559556 23686
STARLINK-34140          
1 64085U 25107X   25287.11755354  .00038177  00000+0  13874-2 0  9993
2 64085  43.0020 309.3518 0003296  76.6293 283.4926 15.27631782 23681
STARLINK-34132          
1 64086U 25107Y   25286.80089815  .00041768  00000+0  15174-2 0  9996
2 64086  43.0023 311.2794 0000163 205.3353 154.7491 15.27610215 23620
STARLINK-34178          
1 64096U 25110A   25287.31183043  .00049849  00000+0  12485-2 0  9996
2 64096  53.1591 347.9330 0001660 104.2597 255.8593 15.39609767 23455
STARLINK-34174          
1 64097U 25110B   25287.17778027  .00057683  00000+0  14389-2 0  9993
2 64097  53.1584 349.2336 0001946  81.5633 278.5592 15.39668376 23423
STARLINK-34146          
1 64098U 25110C   25286.91314427  .00058143  00000+0  14527-2 0  9991
2 64098  53.1602 350.4285 0000625  87.2650 272.8426 15.39614581 23384
STARLINK-34074          
1 64099U 25110D   25287.16816758  .00050346  00000+0  12600-2 0  9991
2 64099  53.1596 349.1750 0002151  80.2769 279.8479 15.39627475 23425
STARLINK-34082          
1 64100U 25110E   25287.18243183  .00070003  00000+0  17439-2 0  9999
2 64100  53.1608 349.2649 0000701 342.2527  17.8454 15.39622367 23420
STARLINK-34072          
1 64101U 25110F   25286.59321450  .00057625  00000+0  14398-2 0  9994
2 64101  53.1590 351.9841 0001071  90.8786 269.2342 15.39618815 23331
STARLINK-34104          
1 64102U 25110G   25286.91348380  .00059801  00000+0  14930-2 0  9992
2 64102  53.1604 350.4287 0001506  87.2344 272.8833 15.39625977 23386
STARLINK-34179          
1 64103U 25110H   25287.16849929  .00083326  00000+0  20703-2 0  9990
2 64103  53.1599 349.1762 0000746 108.1831 251.9256 15.39622193 23421
STARLINK-34176          
1 64104U 25110J   25287.16385714  .00072175  00000+0  17952-2 0  9990
2 64104  53.1596 349.1469 0002775  74.8625 285.2686 15.39654470 23427
STARLINK-33949          
1 64105U 25110K   25287.16351980  .00060857  00000+0  15177-2 0  9990
2 64105  53.1596 349.1438 0001414 101.2945 258.8219 15.39651309 23429
STARLINK-33970          
1 64106U 25110L   25286.89921255  .00047063  00000+0  11795-2 0  9994
2 64106  53.1597 350.3390 0000719 102.8657 257.2428 15.39615504 23383
STARLINK-33912          
1 64107U 25110M   25286.89490825  .00052139  00000+0  13045-2 0  9999
2 64107  53.1601 350.3117 0001241  93.8444 266.2702 15.39621808 23380
